C/2007 N3 (Lulin),e,178.3769,338.1678,136.6506,1536,0.0000164,0.99919865,0.0000,01/08.2612/2009,2000,g  6.5,4.0
# From MPC 60925
P/2007 Q2 (Gilmore),e,10.2145,172.2519,162.9393,5.632337,0.0737346,0.66982371,283.7736,01/29.0/2018,2000,g 16.0,4.0
# From MPC 78183
C/2007 Q3 (Siding Spring),h,10/07.2364/2009,65.6264,149.3658,2.2863,1.000617,2.267707,2000,4.5,4.0
# From MPC 75514
P/2007 R1 (Larson),e,7.8464,181.5238,175.0227,6.041261,0.0663762,0.28331903,254.3296,01/29.0/2018,2000,g  8.0,4.0
# From MPC 75708
P/2007 R2 (Gibbs),e,1.2343,11.8659,352.4047,3.560501,0.1467025,0.54638277,219.2086,01/29.0/2018,2000,g 17.0,4.0
# From MPC 75708
P/2007 R4 (Garradd),e,20.2136,87.2903,283.0557,5.882790,0.0690763,0.66951730,262.4498,01/29.0/2018,2000,g 14.5,4.0
# From MPC 73462
P/2007 S1 (Zhao),e,5.9676,141.5031,245.9457,3.803057,0.1328938,0.34195129,132.3242,01/29.0/2018,2000,g 13.0,4.0
# From MPC 82314
C/2007 S2 (Lemmon),e,16.8543,296.0783,210.6767,12.56428,0.0221308,0.55605329,75.8278,01/29.0/2018,2000,g  6.5,4.0
# From MPC 62270
C/2007 T1 (McNaught),e,117.7777,111.5875,233.8890,1956,0.0000114,0.99949979,0.0000,12/08.2978/2007,2000,g 10.5,4.0
# From MPC 61994
P/2007 T2 (Kowalski),e,9.7347,3.4120,359.6205,3.049849,0.1850490,0.78482022,327.5325,01/29.0/2018,2000,g 18.5,4.0
# From MPC 62879
P/2007 T4 (Gibbs),e,23.8608,37.0565,42.4750,5.245363,0.0820429,0.61791580,315.6358,01/29.0/2018,2000,g 13.0,4.0
# From MPC 65935
C/2007 T5 (Gibbs),e,45.5416,109.8001,34.5818,46.82824,0.0030757,0.91310179,10.8807,01/29.0/2018,2000,g  8.0,4.0
# From MPC 66921
C/2007 U1 (LINEAR),h,08/09.5783/2008,157.7305,50.4647,1.2875,1.000580,3.314593,2000,9.0,4.0
# From MPC 75708
P/2007 V1 (Larson),e,10.7597,7.9360,51.6381,4.976483,0.0887811,0.46219691,329.0912,01/29.0/2018,2000,g 12.0,4.0
# From MPC 75708
P/2007 VQ11 (Catalina),e,12.3254,163.8190,277.7965,5.415623,0.0782045,0.50269995,284.6489,01/29.0/2018,2000,g 12.0,4.0
# From MPC 81468
C/2007 VO53 (Spacewatch),h,04/24.1051/2010,86.8605,59.6992,75.1479,1.000558,4.855832,2000,7.0,4.0
# From MPC 63599
C/2007 W1 (Boattini),e,9.8949,334.5609,306.2577,1189,0.0000240,0.99929829,0.0000,06/25.2554/2008,2000,g  9.5,4.0
# From MPC 63376
C/2007 W3 (LINEAR),e,78.6217,72.7232,112.5585,3828,0.0000042,0.99953787,0.0000,06/03.4261/2008,2000,g 12.0,4.0
# From MPC 62271
C/2007 Y1 (LINEAR),e,110.1147,133.0951,357.2892,18311,0.0000004,0.99981642,0.0000,03/19.3011/2008,2000,g 10.5,4.0
# From MPC 62271
C/2007 Y2 (McNaught),e,98.4364,303.3995,257.7033,995.8271,0.0000314,0.99578285,0.0000,04/11.7206/2008,2000,g  9.0,4.0
# From MPC 65935
C/2008 A1 (McNaught),e,82.8377,277.7170,348.2978,3037,0.0000059,0.99964967,0.0000,09/28.1041/2008,2000,g  6.5,4.0
# From MPC 62582
C/2008 C1 (Chen-Gao),e,61.7004,307.7738,181.0543,8412,0.0000013,0.99984860,0.0000,04/17.1525/2008,2000,g 10.0,4.0
# From MPC 75708
P/2008 CL94 (Lemmon),e,8.3544,33.3522,81.2525,6.152295,0.0645875,0.12033069,273.4392,01/29.0/2018,2000,g  8.0,4.0
# From MPC 64113
C/2008 E1 (Catalina),e,34.8211,188.8173,270.7513,10.81482,0.0277124,0.54921833,95.9086,01/29.0/2018,2000,g  7.0,4.0
# From MPC 68392
C/2008 E3 (Garradd),e,105.1997,105.6723,218.0037,1181,0.0000243,0.99531646,0.0000,07/28.9980/2008,2000,g  6.0,4.0
# From MPC 88324
C/2008 FK75 (Lemmon-Siding Spring),h,09/30.6473/2010,61.3055,218.2840,80.3520,1.000659,4.499828,2000,5.0,4.0
# From MPC 82314
C/2008 G1 (Gibbs),e,73.0809,215.9262,63.6642,285.8695,0.0002039,0.98606538,0.0000,01/13.1563/2009,2000,g  9.5,4.0
# From MPC 63137
C/2008 H1 (LINEAR),e,75.3651,34.4149,96.1106,50.71158,0.0027293,0.94537646,9.8486,01/29.0/2018,2000,g 10.5,4.0
# From MPC 65054
C/2008 J1 (Boattini),e,61.9437,273.6165,68.0332,156.5032,0.0005034,0.98896577,0.0000,07/10.0221/2008,2000,g 10.0,4.0
# From MPC 63376
C/2008 J5 (Garradd),e,93.3385,286.9041,313.0483,68.11680,0.0017532,0.97146475,0.0000,04/01.4337/2008,2000,g 12.0,4.0
# From MPC 82314
C/2008 J6 (Hill),h,04/09.6433/2008,45.0981,298.1643,10.5236,1.000786,1.989049,2000,10.5,4.0
# From MPC 75709
P/2008 L2 (Hill),e,25.8388,218.0063,141.2747,6.023987,0.0666619,0.61197065,231.2426,01/29.0/2018,2000,g 12.5,4.0
# From MPC 68902
C/2008 N1 (Holmes),e,115.4194,357.3952,100.8305,850.3432,0.0000397,0.99670801,0.0000,09/21.4212/2009,2000,g  9.0,4.0
# From MPC 75709
P/2008 O2 (McNaught),e,9.5127,325.8454,26.9604,4.496028,0.1033857,0.15143640,332.7029,01/29.0/2018,2000,g  9.0,4.0
# From MPC 64114
P/2008 O3 (Boattini),e,32.1851,47.6411,341.1425,8.233156,0.0417210,0.69342861,147.5952,01/29.0/2018,2000,g 13.0,4.0
# From MPC103843
C/2008 P1 (Garradd),e,64.2807,357.7770,11.7044,2898,0.0000063,0.99865852,0.0000,07/19.9243/2009,2000,g  7.0,4.0
# From MPC 65935
C/2008 Q1 (Maticic),e,118.5229,9.1596,104.4069,546.7713,0.0000771,0.99456607,0.0000,12/25.4660/2008,2000,g 10.0,4.0
# From MPC 80896
C/2008 Q3 (Garradd),e,140.8172,219.4814,340.6945,1442,0.0000180,0.99874271,0.0000,06/19.4867/2009,2000,g 10.0,4.0
# From MPC 75709
P/2008 QP20 (LINEAR-Hill),e,7.5541,323.5114,74.7145,3.524561,0.1489521,0.50104222,147.4054,01/29.0/2018,2000,g 15.5,4.0
# From MPC 64115
C/2008 R3 (LINEAR),e,43.2955,270.7777,84.0333,18.26236,0.0126290,0.89518489,42.4197,01/29.0/2018,2000,g 13.0,4.0
# From MPC 95207
C/2008 S3 (Boattini),h,06/07.6042/2011,162.6923,55.0793,40.0579,1.001938,8.002643,2000,4.0,4.0
# From MPC 66921
C/2008 T2 (Cardinal),h,06/15.2298/2009,56.1847,309.6222,215.9379,1.000213,1.203778,2000,6.0,4.0
# From MPC 66204
P/2008 WZ96 (LINEAR),e,7.2496,56.8307,342.1426,3.431379,0.1550604,0.49552991,161.5957,01/29.0/2018,2000,g 13.5,4.0
# From MPC 65057
C/2008 X3 (LINEAR),e,66.4589,337.6383,140.9959,43.66886,0.0034154,0.95599159,11.6114,01/29.0/2018,2000,g 13.0,4.0
# From MPC 65935
P/2008 Y1 (Boattini),e,8.9181,259.3343,162.7996,4.803386,0.0936231,0.73589538,304.7915,01/29.0/2018,2000,g 15.0,4.0
# From MPC 75710
P/2008 Y3 (McNaught),e,38.7713,262.7996,238.4259,8.038078,0.0432490,0.44723161,142.9538,01/29.0/2018,2000,g  8.5,4.0
# From MPC 88693
P/2008 Y12 (SOHO),e,23.5760,309.8546,144.3174,3.076994,0.1826056,0.97798017,0.0000,10/09.8617/2019,2000,g  9.0,4.0
# From MPC 75710
P/2009 B1 (Boattini),e,22.2238,297.0795,129.1059,6.728506,0.0564711,0.63462060,185.7822,01/29.0/2018,2000,g 13.0,4.0
# From MPC 82315
C/2009 B2 (LINEAR),e,156.9481,18.7165,192.5473,40.75954,0.0037876,0.94235041,12.3163,01/29.0/2018,2000,g 12.5,4.0
# From MPC 72850
C/2009 E1 (Itagaki),e,127.2133,105.7496,48.6969,40.18771,0.0038687,0.98529933,0.0000,04/09.3834/2009,2000,g 11.5,4.0
# From MPC 82315
C/2009 F1 (Larson),e,171.3976,357.9559,219.8066,96.94961,0.0010325,0.98097274,0.0000,06/26.8619/2009,2000,g 15.0,4.0
# From MPC 80256
C/2009 F2 (McNaught),e,59.3352,213.9063,336.5025,362.5100,0.0001428,0.98374993,0.0000,11/13.9093/2009,2000,g  6.0,4.0
# From MPC 95208
C/2009 F4 (McNaught),e,79.4584,53.5592,260.3739,25346,0.0000002,0.99978495,0.0000,01/01.6457/2012,2000,g  3.0,4.0
# From MPC 66204
C/2009 F5 (McNaught),e,84.9390,218.7699,297.3627,78.63779,0.0014134,0.97137147,0.0000,11/02.7500/2008,2000,g 10.0,4.0
# From MPC 72850
C/2009 F6 (Yi-SWAN),e,85.6652,278.9716,129.9426,497.2473,0.0000889,0.99740997,0.0000,05/05.5160/2009,2000,g  6.0,4.0
# From MPC 66466
C/2009 G1 (STEREO),e,108.4778,120.5913,175.2721,389.0452,0.0001284,0.99711487,0.0000,04/13.9464/2009,2000,g  9.0,4.0
# From MPC 82315
C/2009 K2 (Catalina),e,66.8439,123.6746,147.4962,854.0899,0.0000395,0.99622548,0.0000,02/08.5357/2010,2000,g 10.0,4.0
# From MPC 66703
C/2009 K4 (Gibbs),e,34.8384,29.7845,127.7839,42.34166,0.0035773,0.96325091,11.2510,01/29.0/2018,2000,g 13.0,4.0
# From MPC 82315
C/2009 K5 (McNaught),e,104.2414,258.0781,66.2141,2080,0.0000104,0.99931397,0.0000,04/28.7820/2010,2000,g  7.5,4.0
# From MPC 69905
C/2009 O2 (Catalina),e,107.8482,310.4217,133.6741,260.1340,0.0002349,0.99728193,0.0000,03/23.8435/2010,2000,g 11.0,4.0
# From MPC 75710
P/2009 O3 (Hill),e,16.2142,183.8118,154.2993,7.780990,0.0454100,0.68541577,144.6054,01/29.0/2018,2000,g 12.5,4.0
# From MPC 67147
C/2009 O4 (Hill),e,95.7170,172.9951,223.6992,19521,0.0000004,0.99986855,0.0000,12/28.3268/2009,2000,g 10.0,4.0
# From MPC103843
C/2009 P1 (Garradd),e,106.2556,326.1219,90.8644,8006,0.0000014,0.99980495,0.0000,12/21.3023/2011,2000,g  4.0,4.0
# From MPC 76024
C/2009 P2 (Boattini),h,02/09.1960/2010,163.4126,60.4928,76.1283,1.000051,6.528611,2000,6.0,4.0
# From MPC 75710
P/2009 Q1 (Hill),e,14.4980,173.9454,157.1602,5.517882,0.0760406,0.49363934,240.0008,01/29.0/2018,2000,g 11.5,4.0
# From MPC 72850
P/2009 Q4 (Boattini),e,10.9862,127.5187,320.0779,3.132533,0.1777709,0.58072437,170.7831,01/29.0/2018,2000,g 15.5,4.0
# From MPC 68902
P/2009 Q5 (McNaught),e,40.8794,160.1886,209.1215,7.447582,0.0484932,0.60686219,149.0947,01/29.0/2018,2000,g 10.0,4.0
# From MPC 82315
C/2009 R1 (McNaught),h,07/01.7446/2010,76.9452,322.7069,130.9049,1.000394,0.415015,2000,8.0,4.0
# From MPC 87062
C/2009 S3 (Lemmon),e,60.4569,225.1767,129.6937,6107,0.0000021,0.99894170,0.0000,12/11.2294/2011,2000,g  6.5,4.0
# From MPC 78184
P/2009 SK280 (Spacewatch-Hill),e,16.8000,36.4149,327.9471,4.778434,0.0943573,0.11910584,300.2801,01/29.0/2018,2000,g 11.0,4.0
# From MPC 76567
C/2009 T1 (McNaught),e,90.0461,54.4707,282.5990,1103,0.0000269,0.99435905,0.0000,10/08.7383/2009,2000,g  6.5,4.0
# From MPC 75711
P/2009 T2 (La Sagra),e,27.4943,215.7150,216.5946,7.729205,0.0458672,0.76487163,135.1530,01/29.0/2018,2000,g 14.0,4.0
# From MPC 82315
C/2009 T3 (LINEAR),e,148.5885,60.1740,32.3757,3768,0.0000043,0.99939844,0.0000,01/12.1996/2010,2000,g 12.5,4.0
# From MPC 70812
C/2009 U3 (Hill),e,51.0556,49.0597,77.9871,178.2986,0.0004140,0.99200646,0.0000,03/18.6027/2010,2000,g 13.0,4.0
# From MPC 75711
P/2009 U4 (McNaught),e,10.0807,55.3687,259.8296,5.077923,0.0861341,0.67521224,265.2687,01/29.0/2018,2000,g 14.0,4.0
# From MPC 82315
C/2009 U5 (Grauer),h,06/23.0335/2010,25.4420,121.0534,24.2530,1.004174,6.129167,2000,7.0,4.0
# From MPC 82315
C/2009 UG89 (Lemmon),h,12/11.9168/2010,130.1469,321.0570,60.6322,1.005201,3.941241,2000,9.0,4.0
# From MPC 72851
